IRIDIUM 26              
1 24903U 97043A   25246.79309527  .00000720  00000+0  23566-3 0  9995
2 24903  86.3895  77.5772 0002097  93.9831 266.1606 14.37197731468036
IRIDIUM 22              
1 24907U 97043E   25246.92738350  .00000557  00000+0  18493-3 0  9995
2 24907  86.3900  81.1313 0002202  90.0566 270.0884 14.36004499468073
DUMMY MASS 1            
1 24925U 97048A   25246.67953246  .00000708  00000+0  75936-4 0  9999
2 24925  86.3302  99.0298 0005075 210.7075 149.3854 14.87043435516793
DUMMY MASS 2            
1 24926U 97048B   25246.85666993  .00000634  00000+0  68053-4 0  9990
2 24926  86.3304 100.5710 0005469 227.2816 132.7949 14.86794974516595
IRIDIUM 29              
1 24944U 97051A   25246.92211340  .00000618  00000+0  20379-3 0  9994
2 24944  86.3931 110.8761 0002205  82.1049 278.0398 14.36524594464578
IRIDIUM 33              
1 24946U 97051C   25246.92088893  .00000375  00000+0  12499-3 0  9995
2 24946  86.3843 110.1432 0007970 166.4223 193.7189 14.34933482464034
IRIDIUM 28              
1 24948U 97051E   25246.91547494  .00000511  00000+0  16448-3 0  9993
2 24948  86.3930 108.3480 0002088 101.4140 258.7292 14.37433388465151
IRIDIUM 36              
1 24967U 97056C   25246.93605140  .00000550  00000+0  17658-3 0  9991
2 24967  86.4003 139.9488 0002321  89.9583 270.1881 14.37661985463531
